STARLINK-4789           
1 53868U 22114BC  26068.82093655 -.00000208  00000+0  50272-5 0  9991
2 53868  53.2161 263.4434 0001360  97.8997 262.2150 15.08837621193412
DISKSAT D               
1 67221U 25305C   26068.55257179  .00011599  00000+0  76841-3 0  9999
2 67221  45.0023 251.6339 0003712 319.2749  40.7848 15.07416577 12277
